[{"OBJECT_NAME":"STARLINK-36879","OBJECT_ID":"2026-038X","EPOCH":"2026-03-06T14:00:01.000224","MEAN_MOTION":16.00278162,"ECCENTRICITY":0.00011515,"INCLINATION":97.2717,"RA_OF_ASC_NODE":75.6481,"ARG_OF_PERICENTER":95.2912,"MEAN_ANOMALY":203.3679,"EPHEMERIS_TYPE":0,"CLASSIFICATION_TYPE":"U","NORAD_CAT_ID":67982,"ELEMENT_SET_NO":999,"REV_AT_EPOCH":269,"BSTAR":-0.0030336148,"MEAN_MOTION_DOT":-0.01549786,"MEAN_MOTION_DDOT":0.00074006926},{"OBJECT_NAME":"STARLINK-36867","OBJECT_ID":"2026-038Y","EPOCH":"2026-03-06T14:00:01.000224","MEAN_MOTION":16.00558911,"ECCENTRICITY":0.00011155,"INCLINATION":97.2716,"RA_OF_ASC_NODE":75.6512,"ARG_OF_PERICENTER":87.9453,"MEAN_ANOMALY":217.0271,"EPHEMERIS_TYPE":0,"CLASSIFICATION_TYPE":"U","NORAD_CAT_ID":67983,"ELEMENT_SET_NO":999,"REV_AT_EPOCH":269,"BSTAR":-0.0029863718,"MEAN_MOTION_DOT":-0.01550155,"MEAN_MOTION_DDOT":0.00074276267},{"OBJECT_NAME":"STARLINK-36266","OBJECT_ID":"2026-038Z","EPOCH":"2026-03-06T14:00:01.000224","MEAN_MOTION":16.0043166,"ECCENTRICITY":0.00011868,"INCLINATION":97.2717,"RA_OF_ASC_NODE":75.6499,"ARG_OF_PERICENTER":95.354,"MEAN_ANOMALY":206.7739,"EPHEMERIS_TYPE":0,"CLASSIFICATION_TYPE":"U","NORAD_CAT_ID":67984,"ELEMENT_SET_NO":999,"REV_AT_EPOCH":266,"BSTAR":-0.0030107185,"MEAN_MOTION_DOT":-0.01551529,"MEAN_MOTION_DDOT":0.00074291027},{"OBJECT_NAME":"STARLINK-36802","OBJECT_ID":"2026-038AA","EPOCH":"2026-03-06T14:00:01.000224","MEAN_MOTION":16.00670118,"ECCENTRICITY":0.00010273,"INCLINATION":97.2713,"RA_OF_ASC_NODE":75.652,"ARG_OF_PERICENTER":97.113,"MEAN_ANOMALY":210.4636,"EPHEMERIS_TYPE":0,"CLASSIFICATION_TYPE":"U","NORAD_CAT_ID":67985,"ELEMENT_SET_NO":999,"REV_AT_EPOCH":269,"BSTAR":-0.0029431791,"MEAN_MOTION_DOT":-0.01537568,"MEAN_MOTION_DDOT":0.00073250988},{"OBJECT_NAME":"STARLINK-36535","OBJECT_ID":"2026-039A","EPOCH":"2026-03-06T14:00:01.000224","MEAN_MOTION":15.93376699,"ECCENTRICITY":0.00017406,"INCLINATION":42.9977,"RA_OF_ASC_NODE":74.16,"ARG_OF_PERICENTER":272.4315,"MEAN_ANOMALY":346.2778,"EPHEMERIS_TYPE":0,"CLASSIFICATION_TYPE":"U","NORAD_CAT_ID":67986,"ELEMENT_SET_NO":999,"REV_AT_EPOCH":237,"BSTAR":-0.0040409603,"MEAN_MOTION_DOT":-0.01489538,"MEAN_MOTION_DDOT":0.00063491836},{"OBJECT_NAME":"STARLINK-36744","OBJECT_ID":"2026-039B","EPOCH":"2026-03-06T14:00:01.000224","MEAN_MOTION":15.93518437,"ECCENTRICITY":0.00018152,"INCLINATION":42.9976,"RA_OF_ASC_NODE":74.1548,"ARG_OF_PERICENTER":268.5506,"MEAN_ANOMALY":352.1374,"EPHEMERIS_TYPE":0,"CLASSIFICATION_TYPE":"U","NORAD_CAT_ID":67987,"ELEMENT_SET_NO":999,"REV_AT_EPOCH":237,"BSTAR":-0.0039886536,"MEAN_MOTION_DOT":-0.01481447,"MEAN_MOTION_DDOT":0.00062948023},{"OBJECT_NAME":"STARLINK-36734","OBJECT_ID":"2026-039C","EPOCH":"2026-03-06T14:00:01.000224","MEAN_MOTION":15.93665262,"ECCENTRICITY":0.00017796,"INCLINATION":42.9977,"RA_OF_ASC_NODE":74.1488,"ARG_OF_PERICENTER":272.3925,"MEAN_ANOMALY":350.6841,"EPHEMERIS_TYPE":0,"CLASSIFICATION_TYPE":"U","NORAD_CAT_ID":67988,"ELEMENT_SET_NO":999,"REV_AT_EPOCH":237,"BSTAR":-0.0039317785,"MEAN_MOTION_DOT":-0.01471843,"MEAN_MOTION_DDOT":0.00062291046},{"OBJECT_NAME":"STARLINK-36957","OBJECT_ID":"2026-039D","EPOCH":"2026-03-06T14:00:01.000224","MEAN_MOTION":15.93809282,"ECCENTRICITY":0.00018236,"INCLINATION":42.9975,"RA_OF_ASC_NODE":74.1433,"ARG_OF_PERICENTER":271.9027,"MEAN_ANOMALY":353.147,"EPHEMERIS_TYPE":0,"CLASSIFICATION_TYPE":"U","NORAD_CAT_ID":67989,"ELEMENT_SET_NO":999,"REV_AT_EPOCH":237,"BSTAR":-0.0038833875,"MEAN_MOTION_DOT":-0.01464986,"MEAN_MOTION_DDOT":0.00061847432},{"OBJECT_NAME":"STARLINK-36951","OBJECT_ID":"2026-039E","EPOCH":"2026-03-06T14:00:01.000224","MEAN_MOTION":15.93961204,"ECCENTRICITY":0.00018806,"INCLINATION":42.9976,"RA_OF_ASC_NODE":74.1375,"ARG_OF_PERICENTER":268.7953,"MEAN_ANOMALY":358.5823,"EPHEMERIS_TYPE":0,"CLASSIFICATION_TYPE":"U","NORAD_CAT_ID":67990,"ELEMENT_SET_NO":999,"REV_AT_EPOCH":237,"BSTAR":-0.0038633216,"MEAN_MOTION_DOT":-0.01469209,"MEAN_MOTION_DDOT":0.00062268696},{"OBJECT_NAME":"STARLINK-36941","OBJECT_ID":"2026-039F","EPOCH":"2026-03-06T14:00:01.000224","MEAN_MOTION":15.9409993,"ECCENTRICITY":0.00017897,"INCLINATION":42.9976,"RA_OF_ASC_NODE":74.1328,"ARG_OF_PERICENTER":269.3382,"MEAN_ANOMALY":359.8218,"EPHEMERIS_TYPE":0,"CLASSIFICATION_TYPE":"U","NORAD_CAT_ID":67991,"ELEMENT_SET_NO":999,"REV_AT_EPOCH":237,"BSTAR":-0.003806919,"MEAN_MOTION_DOT":-0.01458608,"MEAN_MOTION_DDOT":0.00061531195},{"OBJECT_NAME":"STARLINK-36950","OBJECT_ID":"2026-039G","EPOCH":"2026-03-06T14:00:01.000224","MEAN_MOTION":15.9424361,"ECCENTRICITY":0.00018007,"INCLINATION":42.9976,"RA_OF_ASC_NODE":74.1273,"ARG_OF_PERICENTER":269.9592,"MEAN_ANOMALY":1.4348,"EPHEMERIS_TYPE":0,"CLASSIFICATION_TYPE":"U","NORAD_CAT_ID":67992,"ELEMENT_SET_NO":999,"REV_AT_EPOCH":237,"BSTAR":-0.0037596695,"MEAN_MOTION_DOT":-0.01451684,"MEAN_MOTION_DDOT":0.00061083404},{"OBJECT_NAME":"STARLINK-36975","OBJECT_ID":"2026-039H","EPOCH":"2026-03-06T14:00:01.000224","MEAN_MOTION":15.94387232,"ECCENTRICITY":0.00017919,"INCLINATION":42.9975,"RA_OF_ASC_NODE":74.1219,"ARG_OF_PERICENTER":272.3822,"MEAN_ANOMALY":1.1084,"EPHEMERIS_TYPE":0,"CLASSIFICATION_TYPE":"U","NORAD_CAT_ID":67993,"ELEMENT_SET_NO":999,"REV_AT_EPOCH":237,"BSTAR":-0.0037191166,"MEAN_MOTION_DOT":-0.01447151,"MEAN_MOTION_DDOT":0.00060820734},{"OBJECT_NAME":"STARLINK-36993","OBJECT_ID":"2026-039J","EPOCH":"2026-03-06T14:00:01.000224","MEAN_MOTION":15.94530203,"ECCENTRICITY":0.00018135,"INCLINATION":42.9976,"RA_OF_ASC_NODE":74.1164,"ARG_OF_PERICENTER":271.0167,"MEAN_ANOMALY":4.7762,"EPHEMERIS_TYPE":0,"CLASSIFICATION_TYPE":"U","NORAD_CAT_ID":67994,"ELEMENT_SET_NO":999,"REV_AT_EPOCH":237,"BSTAR":-0.0036781794,"MEAN_MOTION_DOT":-0.0144229,"MEAN_MOTION_DDOT":0.00060532772},{"OBJECT_NAME":"STARLINK-36968","OBJECT_ID":"2026-039K","EPOCH":"2026-03-06T14:00:01.000224","MEAN_MOTION":15.94802836,"ECCENTRICITY":0.00019048,"INCLINATION":42.9976,"RA_OF_ASC_NODE":74.1017,"ARG_OF_PERICENTER":272.163,"MEAN_ANOMALY":9.4047,"EPHEMERIS_TYPE":0,"CLASSIFICATION_TYPE":"U","NORAD_CAT_ID":67995,"ELEMENT_SET_NO":999,"REV_AT_EPOCH":237,"BSTAR":-0.0036659201,"MEAN_MOTION_DOT":-0.01458513,"MEAN_MOTION_DDOT":0.0006195666},{"OBJECT_NAME":"STARLINK-36979","OBJECT_ID":"2026-039L","EPOCH":"2026-03-06T14:00:01.000224","MEAN_MOTION":15.94659826,"ECCENTRICITY":0.0001866,"INCLINATION":42.9974,"RA_OF_ASC_NODE":74.1069,"ARG_OF_PERICENTER":269.6457,"MEAN_ANOMALY":9.7814,"EPHEMERIS_TYPE":0,"CLASSIFICATION_TYPE":"U","NORAD_CAT_ID":67996,"ELEMENT_SET_NO":999,"REV_AT_EPOCH":237,"BSTAR":-0.0037080716,"MEAN_MOTION_DOT":-0.0146391,"MEAN_MOTION_DDOT":0.00062288907},{"OBJECT_NAME":"STARLINK-36994","OBJECT_ID":"2026-039M","EPOCH":"2026-03-06T14:00:01.000224","MEAN_MOTION":15.95094943,"ECCENTRICITY":0.00019069,"INCLINATION":42.9976,"RA_OF_ASC_NODE":74.0895,"ARG_OF_PERICENTER":270.5153,"MEAN_ANOMALY":15.7325,"EPHEMERIS_TYPE":0,"CLASSIFICATION_TYPE":"U","NORAD_CAT_ID":67997,"ELEMENT_SET_NO":999,"REV_AT_EPOCH":237,"BSTAR":-0.0036198732,"MEAN_MOTION_DOT":-0.01462988,"MEAN_MOTION_DDOT":0.00062489126}]
